ALOS-4 (DAICHI-4)       
1 60182U 24123A   24229.54940804  .00000500  00000+0  73855-4 0  9998
2 60182  97.9215 325.3457 0001395  98.1122  28.2230 14.79473854  6861
